{"fetched_at":"2026-07-21T17:53:10.368Z","source":"https://celestrak.org/NORAD/elements/gp.php?GROUP=spire&FORMAT=JSON","constellation":"spire","records":[{"OBJECT_NAME":"LEMUR-2-LEIA-PHILIP","OBJECT_ID":"2025-052AN","EPOCH":"2026-07-21T03:37:11.653248","CLASSIFICATION_TYPE":"U","MEAN_MOTION":14.97395495,"ECCENTRICITY":0.00050545,"INCLINATION":97.6788,"RA_OF_ASC_NODE":93.5247,"ARG_OF_PERICENTER":107.2779,"MEAN_ANOMALY":252.8997,"EPHEMERIS_TYPE":0,"NORAD_CAT_ID":63246,"ELEMENT_SET_NO":999,"REV_AT_EPOCH":7375,"BSTAR":0.000047868711,"MEAN_MOTION_DOT":0.00000499,"MEAN_MOTION_DDOT":0},{"OBJECT_NAME":"LEMUR-2-LIA-MARTIN","OBJECT_ID":"2025-052AQ","EPOCH":"2026-07-21T03:25:38.560224","CLASSIFICATION_TYPE":"U","MEAN_MOTION":14.98051983,"ECCENTRICITY":0.000487,"INCLINATION":97.6847,"RA_OF_ASC_NODE":94.0459,"ARG_OF_PERICENTER":75.2895,"MEAN_ANOMALY":284.8867,"EPHEMERIS_TYPE":0,"NORAD_CAT_ID":63248,"ELEMENT_SET_NO":999,"REV_AT_EPOCH":7376,"BSTAR":0.00019400827,"MEAN_MOTION_DOT":0.00002236,"MEAN_MOTION_DDOT":0},{"OBJECT_NAME":"LEMUR-2-DELOITTE-1","OBJECT_ID":"2025-052BB","EPOCH":"2026-07-21T02:58:53.558400","CLASSIFICATION_TYPE":"U","MEAN_MOTION":14.97814493,"ECCENTRICITY":0.00025102,"INCLINATION":97.6886,"RA_OF_ASC_NODE":94.3577,"ARG_OF_PERICENTER":55.5698,"MEAN_ANOMALY":304.5761,"EPHEMERIS_TYPE":0,"NORAD_CAT_ID":63259,"ELEMENT_SET_NO":999,"REV_AT_EPOCH":7377,"BSTAR":0.00025548979,"MEAN_MOTION_DOT":0.00002944,"MEAN_MOTION_DDOT":0},{"OBJECT_NAME":"LEMUR-2-EMERSONROSE","OBJECT_ID":"2025-052BD","EPOCH":"2026-07-21T03:10:43.414752","CLASSIFICATION_TYPE":"U","MEAN_MOTION":14.99322635,"ECCENTRICITY":0.00023654,"INCLINATION":97.6884,"RA_OF_ASC_NODE":94.9926,"ARG_OF_PERICENTER":45.2798,"MEAN_ANOMALY":314.8618,"EPHEMERIS_TYPE":0,"NORAD_CAT_ID":63261,"ELEMENT_SET_NO":999,"REV_AT_EPOCH":7382,"BSTAR":0.00022730758,"MEAN_MOTION_DOT":0.00002718,"MEAN_MOTION_DDOT":0},{"OBJECT_NAME":"LEMUR-2-MARACHE-FRAN","OBJECT_ID":"2025-052BE","EPOCH":"2026-07-21T03:37:37.390080","CLASSIFICATION_TYPE":"U","MEAN_MOTION":15.0033965,"ECCENTRICITY":0.00059086,"INCLINATION":97.6813,"RA_OF_ASC_NODE":95.3832,"ARG_OF_PERICENTER":228.7343,"MEAN_ANOMALY":131.3372,"EPHEMERIS_TYPE":0,"NORAD_CAT_ID":63262,"ELEMENT_SET_NO":999,"REV_AT_EPOCH":7385,"BSTAR":0.00022929844,"MEAN_MOTION_DOT":0.00002818,"MEAN_MOTION_DDOT":0},{"OBJECT_NAME":"LEMUR-2-THEFALCONER","OBJECT_ID":"2025-052BG","EPOCH":"2026-07-21T03:44:02.432544","CLASSIFICATION_TYPE":"U","MEAN_MOTION":14.97581436,"ECCENTRICITY":0.00007838,"INCLINATION":97.6812,"RA_OF_ASC_NODE":93.9722,"ARG_OF_PERICENTER":214.746,"MEAN_ANOMALY":145.3711,"EPHEMERIS_TYPE":0,"NORAD_CAT_ID":63264,"ELEMENT_SET_NO":999,"REV_AT_EPOCH":7377,"BSTAR":0.00017170035,"MEAN_MOTION_DOT":0.00001948,"MEAN_MOTION_DDOT":0},{"OBJECT_NAME":"LEMUR-2-UNTITLED-SC","OBJECT_ID":"2025-061A","EPOCH":"2026-07-21T04:50:24.376128","CLASSIFICATION_TYPE":"U","MEAN_MOTION":15.13671379,"ECCENTRICITY":0.0019739,"INCLINATION":97.5662,"RA_OF_ASC_NODE":177.3242,"ARG_OF_PERICENTER":143.1626,"MEAN_ANOMALY":217.0966,"EPHEMERIS_TYPE":0,"NORAD_CAT_ID":63351,"ELEMENT_SET_NO":999,"REV_AT_EPOCH":7273,"BSTAR":0.00013612057,"MEAN_MOTION_DOT":0.00002392,"MEAN_MOTION_DDOT":0},{"OBJECT_NAME":"LEMUR-2-ESPERANZA","OBJECT_ID":"2025-061B","EPOCH":"2026-07-21T05:49:28.054848","CLASSIFICATION_TYPE":"U","MEAN_MOTION":15.13777808,"ECCENTRICITY":0.00193876,"INCLINATION":97.5669,"RA_OF_ASC_NODE":177.4666,"ARG_OF_PERICENTER":142.4352,"MEAN_ANOMALY":217.8238,"EPHEMERIS_TYPE":0,"NORAD_CAT_ID":63352,"ELEMENT_SET_NO":999,"REV_AT_EPOCH":7274,"BSTAR":0.00013075435,"MEAN_MOTION_DOT":0.00002302,"MEAN_MOTION_DDOT":0},{"OBJECT_NAME":"LEMUR-2-KREMPEL-BRO2","OBJECT_ID":"2025-061C","EPOCH":"2026-07-21T04:39:10.368864","CLASSIFICATION_TYPE":"U","MEAN_MOTION":15.14205287,"ECCENTRICITY":0.00204736,"INCLINATION":97.5714,"RA_OF_ASC_NODE":177.9947,"ARG_OF_PERICENTER":135.546,"MEAN_ANOMALY":224.7419,"EPHEMERIS_TYPE":0,"NORAD_CAT_ID":63353,"ELEMENT_SET_NO":999,"REV_AT_EPOCH":7275,"BSTAR":0.00013908269,"MEAN_MOTION_DOT":0.00002484,"MEAN_MOTION_DDOT":0},{"OBJECT_NAME":"LEMUR-2-THERMORAPTOR","OBJECT_ID":"2025-061D","EPOCH":"2026-07-21T04:10:42.111264","CLASSIFICATION_TYPE":"U","MEAN_MOTION":15.14288331,"ECCENTRICITY":0.00202101,"INCLINATION":97.5721,"RA_OF_ASC_NODE":178.0573,"ARG_OF_PERICENTER":134.6013,"MEAN_ANOMALY":225.6872,"EPHEMERIS_TYPE":0,"NORAD_CAT_ID":63354,"ELEMENT_SET_NO":999,"REV_AT_EPOCH":7275,"BSTAR":0.00013604651,"MEAN_MOTION_DOT":0.00002434,"MEAN_MOTION_DDOT":0},{"OBJECT_NAME":"LEMUR-2-NEUROSPICY","OBJECT_ID":"2025-061E","EPOCH":"2026-07-20T21:05:32.333280","CLASSIFICATION_TYPE":"U","MEAN_MOTION":15.14404805,"ECCENTRICITY":0.00179593,"INCLINATION":97.5648,"RA_OF_ASC_NODE":177.3637,"ARG_OF_PERICENTER":138.339,"MEAN_ANOMALY":221.9213,"EPHEMERIS_TYPE":0,"NORAD_CAT_ID":63355,"ELEMENT_SET_NO":999,"REV_AT_EPOCH":7271,"BSTAR":0.00012904134,"MEAN_MOTION_DOT":0.0000231,"MEAN_MOTION_DDOT":0},{"OBJECT_NAME":"LEMUR-2-TILLINFINITY","OBJECT_ID":"2025-061F","EPOCH":"2026-07-20T21:37:37.248384","CLASSIFICATION_TYPE":"U","MEAN_MOTION":15.14989431,"ECCENTRICITY":0.00194898,"INCLINATION":97.5632,"RA_OF_ASC_NODE":177.6998,"ARG_OF_PERICENTER":127.41,"MEAN_ANOMALY":232.891,"EPHEMERIS_TYPE":0,"NORAD_CAT_ID":63356,"ELEMENT_SET_NO":999,"REV_AT_EPOCH":7274,"BSTAR":0.00013843006,"MEAN_MOTION_DOT":0.00002527,"MEAN_MOTION_DDOT":0},{"OBJECT_NAME":"LEMUR-2-KREMPEL-BRO1","OBJECT_ID":"2025-061G","EPOCH":"2026-07-20T21:05:37.353120","CLASSIFICATION_TYPE":"U","MEAN_MOTION":15.14796156,"ECCENTRICITY":0.00201001,"INCLINATION":97.5634,"RA_OF_ASC_NODE":177.5844,"ARG_OF_PERICENTER":128.7862,"MEAN_ANOMALY":231.5169,"EPHEMERIS_TYPE":0,"NORAD_CAT_ID":63357,"ELEMENT_SET_NO":999,"REV_AT_EPOCH":7273,"BSTAR":0.00012807574,"MEAN_MOTION_DOT":0.00002321,"MEAN_MOTION_DDOT":0},{"OBJECT_NAME":"LEMUR-2-LANGER2SPACE","OBJECT_ID":"2025-061H","EPOCH":"2026-07-21T04:14:06.345312","CLASSIFICATION_TYPE":"U","MEAN_MOTION":15.1449207,"ECCENTRICITY":0.00179193,"INCLINATION":97.5639,"RA_OF_ASC_NODE":177.6807,"ARG_OF_PERICENTER":135.8259,"MEAN_ANOMALY":224.4408,"EPHEMERIS_TYPE":0,"NORAD_CAT_ID":63358,"ELEMENT_SET_NO":999,"REV_AT_EPOCH":7276,"BSTAR":0.00013751494,"MEAN_MOTION_DOT":0.00002473,"MEAN_MOTION_DDOT":0},{"OBJECT_NAME":"LEMUR-2-BALTO","OBJECT_ID":"2025-052BH","EPOCH":"2026-07-21T03:14:47.843808","CLASSIFICATION_TYPE":"U","MEAN_MOTION":15.00395215,"ECCENTRICITY":0.00049956,"INCLINATION":97.6918,"RA_OF_ASC_NODE":95.3639,"ARG_OF_PERICENTER":301.8348,"MEAN_ANOMALY":58.2389,"EPHEMERIS_TYPE":0,"NORAD_CAT_ID":63395,"ELEMENT_SET_NO":999,"REV_AT_EPOCH":7385,"BSTAR":0.0002588569,"MEAN_MOTION_DOT":0.00003193,"MEAN_MOTION_DDOT":0},{"OBJECT_NAME":"LEMUR-2-KRISH","OBJECT_ID":"2025-135AK","EPOCH":"2026-07-21T01:04:11.848512","CLASSIFICATION_TYPE":"U","MEAN_MOTION":14.96474549,"ECCENTRICITY":0.00011369,"INCLINATION":97.7761,"RA_OF_ASC_NODE":316.6976,"ARG_OF_PERICENTER":108.7454,"MEAN_ANOMALY":251.389,"EPHEMERIS_TYPE":0,"NORAD_CAT_ID":64561,"ELEMENT_SET_NO":999,"REV_AT_EPOCH":5898,"BSTAR":0.00027924101,"MEAN_MOTION_DOT":0.00003112,"MEAN_MOTION_DDOT":0}]}
